NORAD_CAT_ID,OBJECT_NAME,OBJECT_TYPE,EPOCH,MEAN_MOTION,ECCENTRICITY,INCLINATION,RA_OF_ASC_NODE,ARG_OF_PERICENTER,MEAN_ANOMALY,BSTAR,MEAN_MOTION_DOT,MEAN_MOTION_DDOT,TLE_LINE0,TLE_LINE1,TLE_LINE2,SEMIMAJOR_AXIS,PERIOD,APOGEE,PERIGEE,DECAYED
55674.0,STARLINK-5462,PAYLOAD,2024-06-14 20:13:14,14.98331612,0.0003135,70.0,319.9464,268.1787,91.9013,0.00010985,1.218e-05,0.0,0 STARLINK-5462,1 55674U 23021AY  24166.84252914  .00001218  00000-0  10985-3 0  9997,2 55674  70.0000 319.9464 0003135 268.1787  91.9013 14.98331612 74498,6950.188,96.107,574.232,569.874,0.0
55674.0,STARLINK-5462,PAYLOAD,2024-06-15 13:50:43,14.98334436,0.000309,70.0001,318.0947,268.3404,91.7401,3.0605e-05,2.72e-06,0.0,0 STARLINK-5462,1 55674U 23021AY  24167.57688844  .00000272  00000-0  30605-4 0  9994,2 55674  70.0001 318.0947 0003090 268.3404  91.7401 14.98334436 74602,6950.179,96.107,574.192,569.897,0.0
55674.0,STARLINK-5462,PAYLOAD,2024-06-15 20:15:15,14.9833823,0.0003077,70.0002,317.4216,268.376,91.7046,5.7217e-05,5.9e-06,0.0,0 STARLINK-5462,1 55674U 23021AY  24167.84392429  .00000590  00000-0  57217-4 0  9996,2 55674  70.0002 317.4216 0003077 268.3760  91.7046 14.98338230 74640,6950.167,96.106,574.171,569.894,0.0
55674.0,STARLINK-5462,PAYLOAD,2024-06-16 13:52:44,14.9833184,0.0003011,70.0003,315.5697,269.9312,90.1502,3.7136e-05,3.5e-06,0.0,0 STARLINK-5462,1 55674U 23021AY  24168.57828742  .00000350  00000-0  37136-4 0  9991,2 55674  70.0003 315.5697 0003011 269.9312  90.1502 14.98331840 74753,6950.187,96.107,574.145,569.959,0.0
55674.0,STARLINK-5462,PAYLOAD,2024-06-16 18:41:08,14.9833247,0.0003024,70.0002,315.0649,267.7788,92.3025,3.8876e-05,3.71e-06,0.0,0 STARLINK-5462,1 55674U 23021AY  24168.77856648  .00000371  00000-0  38876-4 0  9994,2 55674  70.0002 315.0649 0003024 267.7788  92.3025 14.98332470 74788,6950.185,96.107,574.152,569.949,0.0
55674.0,STARLINK-5462,PAYLOAD,2024-06-17 20:19:17,14.98328591,0.0002899,70.0005,312.3718,268.1489,91.9338,-2.2383e-06,-1.2e-06,0.0,0 STARLINK-5462,1 55674U 23021AY  24169.84672987 -.00000120  00000-0 -22383-5 0  9996,2 55674  70.0005 312.3718 0002899 268.1489  91.9338 14.98328591 74949,6950.197,96.107,574.077,570.047,0.0
55674.0,STARLINK-5462,PAYLOAD,2024-06-18 12:20:37,14.98331519,0.0002996,70.0003,310.6885,268.1167,91.9649,5.7827e-05,5.97e-06,0.0,0 STARLINK-5462,1 55674U 23021AY  24170.51432580  .00000597  00000-0  57827-4 0  9991,2 55674  70.0003 310.6885 0002996 268.1167  91.9649 14.98331519 74741,6950.188,96.107,574.135,569.971,0.0
55674.0,STARLINK-5462,PAYLOAD,2024-06-18 13:56:45,14.98331255,0.0003017,70.0003,310.5202,267.98,92.1013,6.1562e-05,6.42e-06,0.0,0 STARLINK-5462,1 55674U 23021AY  24170.58108578  .00000642  00000-0  61562-4 0  9997,2 55674  70.0003 310.5202 0003017 267.9800  92.1013 14.98331255 75059,6950.189,96.107,574.151,569.957,0.0
55674.0,STARLINK-5462,PAYLOAD,2024-06-18 18:45:09,14.98341255,0.000287,70.0004,310.0153,265.5989,94.4842,-7.2469e-05,-9.58e-06,0.0,0 STARLINK-5462,1 55674U 23021AY  24170.78136182 -.00000958  00000-0 -72469-4 0  9991,2 55674  70.0004 310.0153 0002870 265.5989  94.4842 14.98341255 75087,6950.158,96.106,574.018,570.028,0.0
55674.0,STARLINK-5462,PAYLOAD,2024-06-19 12:22:38,14.98326101,0.0002953,70.0,308.1634,267.4899,92.5922,6.0855e-05,6.33e-06,0.0,0 STARLINK-5462,1 55674U 23021AY  24171.51572849  .00000633  00000-0  60855-4 0  9991,2 55674  70.0000 308.1634 0002953 267.4899  92.5922 14.98326101 74897,6950.205,96.107,574.122,570.018,0.0
55674.0,STARLINK-5462,PAYLOAD,2024-06-19 13:58:47,14.9832616,0.0002955,70.0001,307.995,267.4738,92.6082,5.9913e-05,6.22e-06,0.0,0 STARLINK-5462,1 55674U 23021AY  24171.58248863  .00000622  00000-0  59913-4 0  9995,2 55674  70.0001 307.9950 0002955 267.4738  92.6082 14.98326160 75209,6950.205,96.107,574.124,570.016,0.0
55674.0,STARLINK-5462,PAYLOAD,2024-06-19 18:47:11,14.98328518,0.0002966,70.0001,307.4901,268.093,91.9889,5.7902e-05,5.98e-06,0.0,0 STARLINK-5462,1 55674U 23021AY  24171.78276756  .00000598  00000-0  57902-4 0  9997,2 55674  70.0001 307.4901 0002966 268.0930  91.9889 14.98328518 75232,6950.197,96.107,574.124,570.001,0.0
55674.0,STARLINK-5462,PAYLOAD,2024-06-20 14:00:48,14.98327948,0.0003052,69.9998,305.4696,269.7642,90.3167,-7.8996e-06,-1.87e-06,0.0,0 STARLINK-5462,1 55674U 23021AY  24172.58389052 -.00000187  00000-0 -78996-5 0  9993,2 55674  69.9998 305.4696 0003052 269.7642  90.3167 14.98327948 75359,6950.199,96.107,574.185,569.943,0.0
55674.0,STARLINK-5462,PAYLOAD,2024-06-20 18:49:12,14.98333317,0.0003064,69.9999,304.9647,270.1041,89.9767,-1.6653e-06,-1.13e-06,0.0,0 STARLINK-5462,1 55674U 23021AY  24172.78416673 -.00000113  00000-0 -16653-5 0  9996,2 55674  69.9999 304.9647 0003064 270.1041  89.9767 14.98333317 75089,6950.183,96.107,574.177,569.918,0.0
55674.0,STARLINK-5462,PAYLOAD,2024-06-21 14:02:48,14.98329854,0.000304,70.0002,302.9445,270.8222,89.2589,7.2169e-05,7.68e-06,0.0,0 STARLINK-5462,1 55674U 23021AY  24173.58528703  .00000768  00000-0  72169-4 0  9990,2 55674  70.0002 302.9445 0003040 270.8222  89.2589 14.98329854 75506,6950.193,96.107,574.171,569.945,0.0
55674.0,STARLINK-5462,PAYLOAD,2024-06-21 18:51:12,14.98334165,0.0003005,70.0002,302.4396,270.4527,89.6288,8.5251e-05,9.24e-06,0.0,0 STARLINK-5462,1 55674U 23021AY  24173.78556364  .00000924  00000-0  85251-4 0  9996,2 55674  70.0002 302.4396 0003005 270.4527  89.6288 14.98334165 75232,6950.18,96.107,574.134,569.956,0.0
55674.0,STARLINK-5462,PAYLOAD,2024-06-22 12:28:41,14.98330024,0.0002941,70.0005,300.5884,272.0206,88.0616,4.5669e-05,4.52e-06,0.0,0 STARLINK-5462,1 55674U 23021AY  24174.51992746  .00000452  00000-0  45669-4 0  9991,2 55674  70.0005 300.5884 0002941 272.0206  88.0616 14.98330024 75346,6950.193,96.107,574.102,570.014,0.0
55674.0,STARLINK-5462,PAYLOAD,2024-06-22 14:04:49,14.98329997,0.0002944,70.0005,300.4201,272.0636,88.0186,4.4837e-05,4.42e-06,0.0,0 STARLINK-5462,1 55674U 23021AY  24174.58668752  .00000442  00000-0  44837-4 0  9990,2 55674  70.0005 300.4201 0002944 272.0636  88.0186 14.98329997 75651,6950.193,96.107,574.104,570.012,0.0
55674.0,STARLINK-5462,PAYLOAD,2024-06-22 18:53:13,14.98330275,0.0002861,70.0008,299.9158,266.94,93.1432,5.0833e-05,5.14e-06,0.0,0 STARLINK-5462,1 55674U 23021AY  24174.78696698  .00000514  00000-0  50833-4 0  9995,2 55674  70.0008 299.9158 0002861 266.9400  93.1432 14.98330275 75681,6950.192,96.107,574.045,570.069,0.0
55674.0,STARLINK-5462,PAYLOAD,2024-06-23 12:30:42,14.98330182,0.0002829,70.0009,298.0644,264.0985,95.9851,-1.3482e-05,-2.54e-06,0.0,0 STARLINK-5462,1 55674U 23021AY  24175.52132810 -.00000254  00000-0 -13482-4 0  9991,2 55674  70.0009 298.0644 0002829 264.0985  95.9851 14.98330182 75494,6950.192,96.107,574.024,570.091,0.0
55674.0,STARLINK-5462,PAYLOAD,2024-06-23 14:06:50,14.98326183,0.0002944,70.0009,297.8961,267.9253,92.1569,3.9968e-05,3.84e-06,0.0,0 STARLINK-5462,1 55674U 23021AY  24175.58808924  .00000384  00000-0  39968-4 0  9992,2 55674  70.0009 297.8961 0002944 267.9253  92.1569 14.98326183 75807,6950.205,96.107,574.116,570.024,0.0
55674.0,STARLINK-5462,PAYLOAD,2024-06-23 18:55:14,14.98328541,0.0002925,70.0009,297.391,267.7438,92.3386,6.8307e-05,7.22e-06,0.0,0 STARLINK-5462,1 55674U 23021AY  24175.78836718  .00000722  00000-0  68307-4 0  9991,2 55674  70.0009 297.3910 0002925 267.7438  92.3386 14.98328541 75830,6950.197,96.107,574.095,570.029,0.0
55674.0,STARLINK-5462,PAYLOAD,2024-06-24 12:32:43,14.98332688,0.0002962,70.0007,295.5397,266.1953,93.8868,7.9616e-05,8.57e-06,0.0,0 STARLINK-5462,1 55674U 23021AY  24176.52272233  .00000857  00000-0  79616-4 0  9994,2 55674  70.0007 295.5397 0002962 266.1953  93.8868 14.98332688 75640,6950.185,96.107,574.108,569.991,0.0
55674.0,STARLINK-5462,PAYLOAD,2024-06-24 14:08:51,14.98333351,0.0002923,70.0008,295.3712,266.7786,93.3039,6.1051e-05,6.36e-06,0.0,0 STARLINK-5462,1 55674U 23021AY  24176.58948238  .00000636  00000-0  61051-4 0  9994,2 55674  70.0008 295.3712 0002923 266.7786  93.3039 14.98333351 75954,6950.183,96.107,574.079,570.016,0.0
55674.0,STARLINK-5462,PAYLOAD,2024-06-24 17:21:07,14.98334352,0.0003005,70.0005,295.0345,266.8374,93.2441,8.5833e-05,9.31e-06,0.0,0 STARLINK-5462,1 55674U 23021AY  24176.72300075  .00000931  00000-0  85833-4 0  9993,2 55674  70.0005 295.0345 0003005 266.8374  93.2441 14.98334352 75976,6950.179,96.107,574.133,569.956,0.0
55674.0,STARLINK-5462,PAYLOAD,2024-06-25 12:34:44,14.98328217,0.0002706,70.0013,293.0158,253.8626,106.2236,6.8828e-05,7.28e-06,0.0,0 STARLINK-5462,1 55674U 23021AY  24177.52412411  .00000728  00000-0  68828-4 0  9999,2 55674  70.0013 293.0158 0002706 253.8626 106.2236 14.98328217 75798,6950.198,96.107,573.944,570.183,0.0
55674.0,STARLINK-5462,PAYLOAD,2024-06-25 14:10:52,14.98328906,0.0002716,70.0014,292.8481,256.0361,104.0496,4.6658e-05,4.64e-06,0.0,0 STARLINK-5462,1 55674U 23021AY  24177.59088448  .00000464  00000-0  46658-4 0  9999,2 55674  70.0014 292.8481 0002716 256.0361 104.0496 14.98328906 76102,6950.196,96.107,573.949,570.174,0.0
55674.0,STARLINK-5462,PAYLOAD,2024-06-25 17:23:08,14.98327799,0.0002833,70.0012,292.511,261.3283,98.7555,3.2128e-05,2.9e-06,0.0,0 STARLINK-5462,1 55674U 23021AY  24177.72440563  .00000290  00000-0  32128-4 0  9998,2 55674  70.0012 292.5110 0002833 261.3283  98.7555 14.98327799 76124,6950.2,96.107,574.034,570.096,0.0
55674.0,STARLINK-5462,PAYLOAD,2024-06-26 11:00:36,14.98333783,0.0002882,70.0009,290.6588,263.9561,96.127,1.1045e-05,3.9e-07,0.0,0 STARLINK-5462,1 55674U 23021AY  24178.45876121  .00000039  00000-0  11045-4 0  9998,2 55674  70.0009 290.6588 0002882 263.9561  96.1270 14.98333783 76237,6950.181,96.107,574.049,570.043,0.0
55674.0,STARLINK-5462,PAYLOAD,2024-06-27 11:02:38,14.98328,0.0003202,70.0002,288.1322,273.2134,86.8658,-3.3181e-08,-9.3e-07,0.0,0 STARLINK-5462,1 55674U 23021AY  24179.46016558 -.00000093  00000-0 -33181-7 0  9990,2 55674  70.0002 288.1322 0003202 273.2134  86.8658 14.98328000 76080,6950.199,96.107,574.29,569.839,0.0
